0 ALPHASAT (I-4A F4)
1 39215U 13038A   13282.02073613  .00000128  00000-0  00000+0 0   679
2 39215 000.1095 082.7131 0013097 227.7844 099.5368 01.00264672   809
0 ALPHASAT (I-4A F4)
1 39215U 13038A   13282.79859295  .00000128  00000-0  00000+0 0   682
2 39215 000.1114 080.2940 0007485 321.7176 289.0925 01.00289079   802
0 ALPHASAT (I-4A F4)
1 39215U 13038A   13283.21850047  .00000125  00000-0  00000+0 0   694
2 39215 000.1135 081.2786 0002815 124.5961 276.6829 01.00266327   814
0 ALPHASAT (I-4A F4)
1 39215U 13038A   13283.79441946  .00000123  00000-0  00000+0 0   701
2 39215 000.1147 081.2416 0003069 125.5112 123.7031 01.00270421   815
0 ALPHASAT (I-4A F4)
1 39215U 13038A   13287.21691872  .00000116  00000-0  00000+0 0   710
2 39215 000.1236 081.6919 0002933 131.8581 272.3368 01.00269857   854
0 ALPHASAT (I-4A F4)
1 39215U 13038A   13288.21883468  .00000116  00000-0  00000+0 0   726
2 39215 000.1260 081.4624 0002591 115.4689 290.6134 01.00269499   866
0 ALPHASAT (I-4A F4)
1 39215U 13038A   13291.77931170  .00000122  00000-0  00000+0 0   733
2 39215 000.1325 080.6574 0002440 118.4471 133.7197 01.00271872   895
0 ALPHASAT (I-4A F4)
1 39215U 13038A   13295.69788494  .00000129  00000-0  00000+0 0   745
2 39215 000.1401 080.5113 0002354 119.0225 107.8387 01.00273385   935
